{
  "norad_id": 65036,
  "name": "STARLINK-34770",
  "history": [
    {
      "epoch": "2026-03-28T17:45:00.667584",
      "apogee_km": 475.98162960229456,
      "perigee_km": 474.47416345965394,
      "latitude_deg": -22.179743562651364,
      "longitude_deg": 34.60074176010676,
      "semi_major_axis_km": 6853.364896530974,
      "eccentricity": 0.00010998,
      "inclination_deg": 53.1583,
      "raan_deg": 205.9145,
      "arg_perigee_deg": 71.6937,
      "mean_anomaly_deg": 288.4184,
      "mean_motion_rev_day": 15.30195704
    }
  ]
}